{"fetched_at":"2026-07-21T17:53:36.495Z","source":"https://celestrak.org/NORAD/elements/gp.php?NAME=KINEIS&FORMAT=JSON","constellation":"kineis","records":[{"OBJECT_NAME":"KINEIS-2D","OBJECT_ID":"2025-028C","EPOCH":"2026-07-21T03:46:55.280064","CLASSIFICATION_TYPE":"U","MEAN_MOTION":14.7578063,"ECCENTRICITY":0.00047961,"INCLINATION":97.9268,"RA_OF_ASC_NODE":253.9478,"ARG_OF_PERICENTER":96.6648,"MEAN_ANOMALY":263.5108,"EPHEMERIS_TYPE":0,"NORAD_CAT_ID":62930,"ELEMENT_SET_NO":999,"REV_AT_EPOCH":7772,"BSTAR":0.00016371044,"MEAN_MOTION_DOT":0.00001071,"MEAN_MOTION_DDOT":0},{"OBJECT_NAME":"KINEIS-2E","OBJECT_ID":"2025-028D","EPOCH":"2026-07-21T03:56:41.014176","CLASSIFICATION_TYPE":"U","MEAN_MOTION":14.77097844,"ECCENTRICITY":0.00020697,"INCLINATION":97.8936,"RA_OF_ASC_NODE":253.0726,"ARG_OF_PERICENTER":89.756,"MEAN_ANOMALY":270.3887,"EPHEMERIS_TYPE":0,"NORAD_CAT_ID":62931,"ELEMENT_SET_NO":999,"REV_AT_EPOCH":7779,"BSTAR":0.00014049552,"MEAN_MOTION_DOT":0.00000942,"MEAN_MOTION_DDOT":0},{"OBJECT_NAME":"KINEIS-2A","OBJECT_ID":"2025-028E","EPOCH":"2026-07-21T02:49:44.443200","CLASSIFICATION_TYPE":"U","MEAN_MOTION":14.73460319,"ECCENTRICITY":0.00057942,"INCLINATION":98.1283,"RA_OF_ASC_NODE":257.5576,"ARG_OF_PERICENTER":69.4592,"MEAN_ANOMALY":290.7237,"EPHEMERIS_TYPE":0,"NORAD_CAT_ID":62932,"ELEMENT_SET_NO":999,"REV_AT_EPOCH":7760,"BSTAR":0.00014377793,"MEAN_MOTION_DOT":0.00000882,"MEAN_MOTION_DDOT":0},{"OBJECT_NAME":"KINEIS-2B","OBJECT_ID":"2025-028G","EPOCH":"2026-07-21T03:54:58.163616","CLASSIFICATION_TYPE":"U","MEAN_MOTION":14.73460547,"ECCENTRICITY":0.00045793,"INCLINATION":97.965,"RA_OF_ASC_NODE":254.4067,"ARG_OF_PERICENTER":59.9623,"MEAN_ANOMALY":300.2039,"EPHEMERIS_TYPE":0,"NORAD_CAT_ID":62934,"ELEMENT_SET_NO":999,"REV_AT_EPOCH":7766,"BSTAR":0.00013680621,"MEAN_MOTION_DOT":0.00000839,"MEAN_MOTION_DDOT":0},{"OBJECT_NAME":"KINEIS-4E","OBJECT_ID":"2025-056A","EPOCH":"2026-07-21T07:09:19.819584","CLASSIFICATION_TYPE":"U","MEAN_MOTION":14.72314112,"ECCENTRICITY":0.00028192,"INCLINATION":97.9073,"RA_OF_ASC_NODE":325.2535,"ARG_OF_PERICENTER":75.8752,"MEAN_ANOMALY":284.2769,"EPHEMERIS_TYPE":0,"NORAD_CAT_ID":63300,"ELEMENT_SET_NO":999,"REV_AT_EPOCH":7214,"BSTAR":0.00016817232,"MEAN_MOTION_DOT":0.00001015,"MEAN_MOTION_DDOT":0},{"OBJECT_NAME":"KINEIS-4C","OBJECT_ID":"2025-056B","EPOCH":"2026-07-21T07:27:01.769760","CLASSIFICATION_TYPE":"U","MEAN_MOTION":14.72336214,"ECCENTRICITY":0.00032687,"INCLINATION":97.9127,"RA_OF_ASC_NODE":325.5187,"ARG_OF_PERICENTER":190.6273,"MEAN_ANOMALY":169.4866,"EPHEMERIS_TYPE":0,"NORAD_CAT_ID":63301,"ELEMENT_SET_NO":999,"REV_AT_EPOCH":7215,"BSTAR":0.00017292224,"MEAN_MOTION_DOT":0.00001045,"MEAN_MOTION_DDOT":0},{"OBJECT_NAME":"KINEIS-4D","OBJECT_ID":"2025-056C","EPOCH":"2026-07-21T07:31:55.116768","CLASSIFICATION_TYPE":"U","MEAN_MOTION":14.72214692,"ECCENTRICITY":0.00019734,"INCLINATION":97.9048,"RA_OF_ASC_NODE":325.4887,"ARG_OF_PERICENTER":192.3574,"MEAN_ANOMALY":167.7585,"EPHEMERIS_TYPE":0,"NORAD_CAT_ID":63302,"ELEMENT_SET_NO":999,"REV_AT_EPOCH":7215,"BSTAR":0.00017350586,"MEAN_MOTION_DOT":0.00001046,"MEAN_MOTION_DDOT":0},{"OBJECT_NAME":"KINEIS-4A","OBJECT_ID":"2025-056D","EPOCH":"2026-07-21T06:44:48.026688","CLASSIFICATION_TYPE":"U","MEAN_MOTION":14.72294765,"ECCENTRICITY":0.00024683,"INCLINATION":97.9142,"RA_OF_ASC_NODE":325.4155,"ARG_OF_PERICENTER":141.7791,"MEAN_ANOMALY":218.3592,"EPHEMERIS_TYPE":0,"NORAD_CAT_ID":63303,"ELEMENT_SET_NO":999,"REV_AT_EPOCH":7214,"BSTAR":0.0001577221,"MEAN_MOTION_DOT":0.00000948,"MEAN_MOTION_DDOT":0},{"OBJECT_NAME":"KINEIS-4B","OBJECT_ID":"2025-056E","EPOCH":"2026-07-21T06:19:47.885088","CLASSIFICATION_TYPE":"U","MEAN_MOTION":14.72281755,"ECCENTRICITY":0.00058411,"INCLINATION":97.9153,"RA_OF_ASC_NODE":325.457,"ARG_OF_PERICENTER":174.0505,"MEAN_ANOMALY":186.0773,"EPHEMERIS_TYPE":0,"NORAD_CAT_ID":63304,"ELEMENT_SET_NO":999,"REV_AT_EPOCH":7213,"BSTAR":0.000058894827,"MEAN_MOTION_DOT":0.00000324,"MEAN_MOTION_DDOT":0}]}
