KINEIS-2D               
1 62930U 25028C   26202.15758426  .00001071  00000+0  16371-3 0  9996
2 62930  97.9268 253.9478 0004796  96.6648 263.5108 14.75780630 77725
KINEIS-2E               
1 62931U 25028D   26202.16436359  .00000942  00000+0  14050-3 0  9994
2 62931  97.8936 253.0726 0002069  89.7560 270.3887 14.77097844 77798
KINEIS-2A               
1 62932U 25028E   26202.11787550  .00000882  00000+0  14378-3 0  9998
2 62932  98.1283 257.5576 0005794  69.4592 290.7237 14.73460319 77600
KINEIS-2B               
1 62934U 25028G   26202.16317319  .00000839  00000+0  13681-3 0  9995
2 62934  97.9650 254.4067 0004579  59.9623 300.2039 14.73460547 77663
KINEIS-4E               
1 63300U 25056A   26202.29814606  .00001015  00000+0  16817-3 0  9990
2 63300  97.9073 325.2535 0002819  75.8752 284.2769 14.72314112 72146
KINEIS-4C               
1 63301U 25056B   26202.31043715  .00001045  00000+0  17292-3 0  9990
2 63301  97.9127 325.5187 0003268 190.6273 169.4866 14.72336214 72156
KINEIS-4D               
1 63302U 25056C   26202.31383237  .00001046  00000+0  17351-3 0  9994
2 63302  97.9048 325.4887 0001973 192.3574 167.7585 14.72214692 72153
KINEIS-4A               
1 63303U 25056D   26202.28111142  .00000948  00000+0  15772-3 0  9990
2 63303  97.9142 325.4155 0002468 141.7791 218.3592 14.72294765 72145
KINEIS-4B               
1 63304U 25056E   26202.26374867  .00000324  00000+0  58895-4 0  9996
2 63304  97.9153 325.4570 0005841 174.0505 186.0773 14.72281755 72135
